{
  "type": "FeatureCollection",
  "features": [
    {
      "type": "Feature",
      "properties": {
        "norad_id": 39586,
        "name": "COSMOS 2251 DEB",
        "group": "cosmos-2251-debris",
        "lat": -65.34112219507301,
        "lon": -161.79284163102682,
        "alt_km": 819.0899532661851,
        "timestamp": "2025-12-07T22:37:43.480431+00:00",
        "meta_object_name": "COSMOS 2251 DEB",
        "meta_object_id": "1993-036BUR",
        "meta_epoch": "2025-12-04T00:26:07.876608",
        "meta_mean_motion": 14.21195867,
        "meta_eccentricity": 0.01003221,
        "meta_inclination": 74.0095,
        "meta_ra_of_asc_node": 243.9042,
        "meta_arg_of_pericenter": 20.3845,
        "meta_mean_anomaly": 357.5964,
        "meta_ephemeris_type": 0,
        "meta_classification_type": "U",
        "meta_norad_cat_id": 39586,
        "meta_element_set_no": 999,
        "meta_rev_at_epoch": 60848,
        "meta_bstar": 0.00088936605,
        "meta_mean_motion_dot": 2.011e-05,
        "meta_mean_motion_ddot": 0,
        "tle_line1": "1 39586U 93036BUR 25338.01814672  .00002011  00000+0  88937-3 0  9993",
        "tle_line2": "2 39586  74.0095 243.9042 0100322  20.3845 357.5964 14.21195867608481"
      },
      "geometry": {
        "type": "Point",
        "coordinates": [
          -161.79284163102682,
          -65.34112219507301
        ]
      }
    },
    {
      "type": "Feature",
      "properties": {
        "norad_id": 39591,
        "name": "COSMOS 2251 DEB",
        "group": "cosmos-2251-debris",
        "lat": -3.575815302746141,
        "lon": 76.69895412050349,
        "alt_km": 776.0493445466209,
        "timestamp": "2025-12-07T22:37:43.480442+00:00",
        "meta_object_name": "COSMOS 2251 DEB",
        "meta_object_id": "1993-036BUW",
        "meta_epoch": "2025-12-02T01:57:06.430752",
        "meta_mean_motion": 14.41775079,
        "meta_eccentricity": 0.00288186,
        "meta_inclination": 74.0265,
        "meta_ra_of_asc_node": 266.5373,
        "meta_arg_of_pericenter": 22.6115,
        "meta_mean_anomaly": 349.3407,
        "meta_ephemeris_type": 0,
        "meta_classification_type": "U",
        "meta_norad_cat_id": 39591,
        "meta_element_set_no": 999,
        "meta_rev_at_epoch": 61623,
        "meta_bstar": 0.00055457771,
        "meta_mean_motion_dot": 1.794e-05,
        "meta_mean_motion_ddot": 0,
        "tle_line1": "1 39591U 93036BUW 25336.08132443  .00001794  00000+0  55458-3 0  9992",
        "tle_line2": "2 39591  74.0265 266.5373 0028818  22.6115 349.3407 14.41775079616232"
      },
      "geometry": {
        "type": "Point",
        "coordinates": [
          76.69895412050349,
          -3.575815302746141
        ]
      }
    },
    {
      "type": "Feature",
      "properties": {
        "norad_id": 40218,
        "name": "COSMOS 2251 DEB",
        "group": "cosmos-2251-debris",
        "lat": 72.02364034283335,
        "lon": -40.33200522788936,
        "alt_km": 748.0813667493603,
        "timestamp": "2025-12-07T22:37:43.480452+00:00",
        "meta_object_name": "COSMOS 2251 DEB",
        "meta_object_id": "1993-036BUX",
        "meta_epoch": "2025-12-02T02:20:48.132384",
        "meta_mean_motion": 14.41546301,
        "meta_eccentricity": 0.00163619,
        "meta_inclination": 74.0309,
        "meta_ra_of_asc_node": 268.5457,
        "meta_arg_of_pericenter": 353.795,
        "meta_mean_anomaly": 6.3,
        "meta_ephemeris_type": 0,
        "meta_classification_type": "U",
        "meta_norad_cat_id": 40218,
        "meta_element_set_no": 999,
        "meta_rev_at_epoch": 58708,
        "meta_bstar": 0.00047133972,
        "meta_mean_motion_dot": 1.508e-05,
        "meta_mean_motion_ddot": 0,
        "tle_line1": "1 40218U 93036BUX 25336.09777931  .00001508  00000+0  47134-3 0  9993",
        "tle_line2": "2 40218  74.0309 268.5457 0016361 353.7950   6.3000 14.41546301587082"
      },
      "geometry": {
        "type": "Point",
        "coordinates": [
          -40.33200522788936,
          72.02364034283335
        ]
      }
    },
    {
      "type": "Feature",
      "properties": {
        "norad_id": 40223,
        "name": "COSMOS 2251 DEB",
        "group": "cosmos-2251-debris",
        "lat": 63.66818888815653,
        "lon": 134.16375148019696,
        "alt_km": 559.2999035318926,
        "timestamp": "2025-12-07T22:37:43.480463+00:00",
        "meta_object_name": "COSMOS 2251 DEB",
        "meta_object_id": "1993-036BVC",
        "meta_epoch": "2025-12-06T02:22:01.105824",
        "meta_mean_motion": 15.0245395,
        "meta_eccentricity": 0.00155815,
        "meta_inclination": 73.937,
        "meta_ra_of_asc_node": 102.3444,
        "meta_arg_of_pericenter": 296.8665,
        "meta_mean_anomaly": 239.5925,
        "meta_ephemeris_type": 0,
        "meta_classification_type": "U",
        "meta_norad_cat_id": 40223,
        "meta_element_set_no": 999,
        "meta_rev_at_epoch": 59274,
        "meta_bstar": 0.0082858106,
        "meta_mean_motion_dot": 0.00111919,
        "meta_mean_motion_ddot": 0,
        "tle_line1": "1 40223U 93036BVC 25340.09862391  .00111919  00000+0  82858-2 0  9998",
        "tle_line2": "2 40223  73.9370 102.3444 0015581 296.8665 239.5925 15.02453950592748"
      },
      "geometry": {
        "type": "Point",
        "coordinates": [
          134.16375148019696,
          63.66818888815653
        ]
      }
    },
    {
      "type": "Feature",
      "properties": {
        "norad_id": 40228,
        "name": "COSMOS 2251 DEB",
        "group": "cosmos-2251-debris",
        "lat": -17.27340846991015,
        "lon": -95.70527965522335,
        "alt_km": 743.1049361476471,
        "timestamp": "2025-12-07T22:37:43.480473+00:00",
        "meta_object_name": "COSMOS 2251 DEB",
        "meta_object_id": "1993-036BVH",
        "meta_epoch": "2025-12-07T04:41:52.280736",
        "meta_mean_motion": 14.40973566,
        "meta_eccentricity": 0.00238729,
        "meta_inclination": 74.0549,
        "meta_ra_of_asc_node": 270.7756,
        "meta_arg_of_pericenter": 332.9992,
        "meta_mean_anomaly": 94.9485,
        "meta_ephemeris_type": 0,
        "meta_classification_type": "U",
        "meta_norad_cat_id": 40228,
        "meta_element_set_no": 999,
        "meta_rev_at_epoch": 58841,
        "meta_bstar": 0.0006048441,
        "meta_mean_motion_dot": 1.924e-05,
        "meta_mean_motion_ddot": 0,
        "tle_line1": "1 40228U 93036BVH 25341.19574399  .00001924  00000+0  60484-3 0  9999",
        "tle_line2": "2 40228  74.0549 270.7756 0023872 332.9992  94.9485 14.40973566588410"
      },
      "geometry": {
        "type": "Point",
        "coordinates": [
          -95.70527965522335,
          -17.27340846991015
        ]
      }
    },
    {
      "type": "Feature",
      "properties": {
        "norad_id": 40230,
        "name": "COSMOS 2251 DEB",
        "group": "cosmos-2251-debris",
        "lat": 1.300307253753755,
        "lon": -123.74484703091079,
        "alt_km": 725.139504769797,
        "timestamp": "2025-12-07T22:37:43.480484+00:00",
        "meta_object_name": "COSMOS 2251 DEB",
        "meta_object_id": "1993-036BVK",
        "meta_epoch": "2025-12-05T11:49:12.794880",
        "meta_mean_motion": 14.49259606,
        "meta_eccentricity": 0.00191133,
        "meta_inclination": 74.0458,
        "meta_ra_of_asc_node": 240.4744,
        "meta_arg_of_pericenter": 299.5216,
        "meta_mean_anomaly": 242.5097,
        "meta_ephemeris_type": 0,
        "meta_classification_type": "U",
        "meta_norad_cat_id": 40230,
        "meta_element_set_no": 999,
        "meta_rev_at_epoch": 58866,
        "meta_bstar": 0.0014637297,
        "meta_mean_motion_dot": 5.571e-05,
        "meta_mean_motion_ddot": 0,
        "tle_line1": "1 40230U 93036BVK 25339.49250920  .00005571  00000+0  14637-2 0  9993",
        "tle_line2": "2 40230  74.0458 240.4744 0019113 299.5216 242.5097 14.49259606588661"
      },
      "geometry": {
        "type": "Point",
        "coordinates": [
          -123.74484703091079,
          1.300307253753755
        ]
      }
    },
    {
      "type": "Feature",
      "properties": {
        "norad_id": 40233,
        "name": "COSMOS 2251 DEB",
        "group": "cosmos-2251-debris",
        "lat": 27.03653584804987,
        "lon": 120.74547406348043,
        "alt_km": 727.6662486606647,
        "timestamp": "2025-12-07T22:37:43.480495+00:00",
        "meta_object_name": "COSMOS 2251 DEB",
        "meta_object_id": "1993-036BVN",
        "meta_epoch": "2025-12-04T02:17:52.292832",
        "meta_mean_motion": 14.58236674,
        "meta_eccentricity": 0.00461905,
        "meta_inclination": 73.9387,
        "meta_ra_of_asc_node": 119.6526,
        "meta_arg_of_pericenter": 195.886,
        "meta_mean_anomaly": 164.0859,
        "meta_ephemeris_type": 0,
        "meta_classification_type": "U",
        "meta_norad_cat_id": 40233,
        "meta_element_set_no": 999,
        "meta_rev_at_epoch": 59011,
        "meta_bstar": 0.0029314151,
        "meta_mean_motion_dot": 0.00013736,
        "meta_mean_motion_ddot": 0,
        "tle_line1": "1 40233U 93036BVN 25338.09574413  .00013736  00000+0  29314-2 0  9997",
        "tle_line2": "2 40233  73.9387 119.6526 0046190 195.8860 164.0859 14.58236674590113"
      },
      "geometry": {
        "type": "Point",
        "coordinates": [
          120.74547406348043,
          27.03653584804987
        ]
      }
    }
  ]
}